{"fetched_at":"2026-07-22T07:09:47.414Z","source":"https://celestrak.org/NORAD/elements/gp.php?NAME=HULIANWANG&FORMAT=JSON","constellation":"guowang","records":[{"OBJECT_NAME":"HULIANWANG JISHU SHIYAN A","OBJECT_ID":"2023-095A","EPOCH":"2026-07-21T14:47:55.664736","CLASSIFICATION_TYPE":"U","MEAN_MOTION":13.39544576,"ECCENTRICITY":0.00195568,"INCLINATION":86.5051,"RA_OF_ASC_NODE":352.8562,"ARG_OF_PERICENTER":95.0878,"MEAN_ANOMALY":265.2497,"EPHEMERIS_TYPE":0,"NORAD_CAT_ID":57288,"ELEMENT_SET_NO":999,"REV_AT_EPOCH":14836,"BSTAR":0.000060685047,"MEAN_MOTION_DOT":4.8e-7,"MEAN_MOTION_DDOT":0},{"OBJECT_NAME":"HULIANWANG JISHU SHIYAN B","OBJECT_ID":"2023-095B","EPOCH":"2026-07-21T14:35:37.275648","CLASSIFICATION_TYPE":"U","MEAN_MOTION":13.39553136,"ECCENTRICITY":0.00181305,"INCLINATION":86.5052,"RA_OF_ASC_NODE":352.8686,"ARG_OF_PERICENTER":93.2951,"MEAN_ANOMALY":267.0266,"EPHEMERIS_TYPE":0,"NORAD_CAT_ID":57289,"ELEMENT_SET_NO":999,"REV_AT_EPOCH":14836,"BSTAR":0.000035749174,"MEAN_MOTION_DOT":3.5e-7,"MEAN_MOTION_DDOT":0},{"OBJECT_NAME":"HULIANWANG JISHU SHIYAN 4A","OBJECT_ID":"2023-212A","EPOCH":"2026-07-21T11:54:41.410368","CLASSIFICATION_TYPE":"U","MEAN_MOTION":13.41459384,"ECCENTRICITY":0.00012307,"INCLINATION":49.9981,"RA_OF_ASC_NODE":218.044,"ARG_OF_PERICENTER":241.9892,"MEAN_ANOMALY":118.0861,"EPHEMERIS_TYPE":0,"NORAD_CAT_ID":58691,"ELEMENT_SET_NO":999,"REV_AT_EPOCH":12585,"BSTAR":0.000058398755,"MEAN_MOTION_DOT":-9.6e-7,"MEAN_MOTION_DDOT":0},{"OBJECT_NAME":"HULIANWANG JISHU SHIYAN 4B","OBJECT_ID":"2023-212B","EPOCH":"2026-07-21T13:32:17.726784","CLASSIFICATION_TYPE":"U","MEAN_MOTION":13.41460506,"ECCENTRICITY":0.00013784,"INCLINATION":49.995,"RA_OF_ASC_NODE":218.1517,"ARG_OF_PERICENTER":231.0391,"MEAN_ANOMALY":129.0364,"EPHEMERIS_TYPE":0,"NORAD_CAT_ID":58692,"ELEMENT_SET_NO":999,"REV_AT_EPOCH":12586,"BSTAR":0.000059344215,"MEAN_MOTION_DOT":-9.5e-7,"MEAN_MOTION_DDOT":0},{"OBJECT_NAME":"HULIANWANG JISHU SHIYAN 4C","OBJECT_ID":"2023-212C","EPOCH":"2026-07-21T13:36:57.416544","CLASSIFICATION_TYPE":"U","MEAN_MOTION":13.41462379,"ECCENTRICITY":0.00012166,"INCLINATION":49.9964,"RA_OF_ASC_NODE":218.2673,"ARG_OF_PERICENTER":220.7648,"MEAN_ANOMALY":139.3139,"EPHEMERIS_TYPE":0,"NORAD_CAT_ID":58693,"ELEMENT_SET_NO":999,"REV_AT_EPOCH":12587,"BSTAR":0.000064421799,"MEAN_MOTION_DOT":-9.2e-7,"MEAN_MOTION_DDOT":0},{"OBJECT_NAME":"HULIANWANG DIGUI-01","OBJECT_ID":"2024-240A","EPOCH":"2026-07-21T14:23:09.018816","CLASSIFICATION_TYPE":"U","MEAN_MOTION":13.24411709,"ECCENTRICITY":0.00020312,"INCLINATION":86.5025,"RA_OF_ASC_NODE":331.6293,"ARG_OF_PERICENTER":104.4528,"MEAN_ANOMALY":255.6832,"EPHEMERIS_TYPE":0,"NORAD_CAT_ID":62323,"ELEMENT_SET_NO":999,"REV_AT_EPOCH":7719,"BSTAR":0.000070018822,"MEAN_MOTION_DOT":4.5e-7,"MEAN_MOTION_DDOT":0},{"OBJECT_NAME":"HULIANWANG DIGUI-02","OBJECT_ID":"2024-240B","EPOCH":"2026-07-21T14:33:53.659584","CLASSIFICATION_TYPE":"U","MEAN_MOTION":13.24411619,"ECCENTRICITY":0.00020006,"INCLINATION":86.5054,"RA_OF_ASC_NODE":331.7957,"ARG_OF_PERICENTER":105.0014,"MEAN_ANOMALY":255.1342,"EPHEMERIS_TYPE":0,"NORAD_CAT_ID":62324,"ELEMENT_SET_NO":999,"REV_AT_EPOCH":7720,"BSTAR":0.000087644781,"MEAN_MOTION_DOT":5.2e-7,"MEAN_MOTION_DDOT":0},{"OBJECT_NAME":"HULIANWANG DIGUI-03","OBJECT_ID":"2024-240C","EPOCH":"2026-07-21T14:12:15.142752","CLASSIFICATION_TYPE":"U","MEAN_MOTION":13.24410296,"ECCENTRICITY":0.00020555,"INCLINATION":86.5008,"RA_OF_ASC_NODE":331.5281,"ARG_OF_PERICENTER":102.6646,"MEAN_ANOMALY":257.4718,"EPHEMERIS_TYPE":0,"NORAD_CAT_ID":62325,"ELEMENT_SET_NO":999,"REV_AT_EPOCH":7719,"BSTAR":0.000046237383,"MEAN_MOTION_DOT":3.4e-7,"MEAN_MOTION_DDOT":0},{"OBJECT_NAME":"HULIANWANG DIGUI-04","OBJECT_ID":"2024-240D","EPOCH":"2026-07-21T15:50:11.178240","CLASSIFICATION_TYPE":"U","MEAN_MOTION":13.24410576,"ECCENTRICITY":0.00021773,"INCLINATION":86.5017,"RA_OF_ASC_NODE":331.5492,"ARG_OF_PERICENTER":101.7334,"MEAN_ANOMALY":258.4044,"EPHEMERIS_TYPE":0,"NORAD_CAT_ID":62326,"ELEMENT_SET_NO":999,"REV_AT_EPOCH":7720,"BSTAR":0.000017149003,"MEAN_MOTION_DOT":2.2e-7,"MEAN_MOTION_DDOT":0},{"OBJECT_NAME":"HULIANWANG DIGUI-05","OBJECT_ID":"2024-240E","EPOCH":"2026-07-21T13:50:30.996096","CLASSIFICATION_TYPE":"U","MEAN_MOTION":13.2441124,"ECCENTRICITY":0.00021974,"INCLINATION":86.507,"RA_OF_ASC_NODE":331.8662,"ARG_OF_PERICENTER":99.3758,"MEAN_ANOMALY":260.7625,"EPHEMERIS_TYPE":0,"NORAD_CAT_ID":62327,"ELEMENT_SET_NO":999,"REV_AT_EPOCH":7719,"BSTAR":0.000008651872,"MEAN_MOTION_DOT":1.8e-7,"MEAN_MOTION_DDOT":0},{"OBJECT_NAME":"HULIANWANG DIGUI-06","OBJECT_ID":"2024-240F","EPOCH":"2026-07-21T15:17:33.959904","CLASSIFICATION_TYPE":"U","MEAN_MOTION":13.24408751,"ECCENTRICITY":0.00021903,"INCLINATION":86.5008,"RA_OF_ASC_NODE":331.4817,"ARG_OF_PERICENTER":105.6807,"MEAN_ANOMALY":254.4569,"EPHEMERIS_TYPE":0,"NORAD_CAT_ID":62328,"ELEMENT_SET_NO":999,"REV_AT_EPOCH":7720,"BSTAR":0.000045794698,"MEAN_MOTION_DOT":3.4e-7,"MEAN_MOTION_DDOT":0},{"OBJECT_NAME":"HULIANWANG DIGUI-07","OBJECT_ID":"2024-240G","EPOCH":"2026-07-21T15:06:38.961504","CLASSIFICATION_TYPE":"U","MEAN_MOTION":13.24411252,"ECCENTRICITY":0.00020824,"INCLINATION":86.4978,"RA_OF_ASC_NODE":331.3131,"ARG_OF_PERICENTER":104.1757,"MEAN_ANOMALY":255.9608,"EPHEMERIS_TYPE":0,"NORAD_CAT_ID":62329,"ELEMENT_SET_NO":999,"REV_AT_EPOCH":7720,"BSTAR":0.000095998438,"MEAN_MOTION_DOT":5.6e-7,"MEAN_MOTION_DDOT":0},{"OBJECT_NAME":"HULIANWANG DIGUI-08","OBJECT_ID":"2024-240H","EPOCH":"2026-07-21T15:28:25.320864","CLASSIFICATION_TYPE":"U","MEAN_MOTION":13.24411553,"ECCENTRICITY":0.00022675,"INCLINATION":86.5061,"RA_OF_ASC_NODE":331.7895,"ARG_OF_PERICENTER":98.8161,"MEAN_ANOMALY":261.323,"EPHEMERIS_TYPE":0,"NORAD_CAT_ID":62330,"ELEMENT_SET_NO":999,"REV_AT_EPOCH":7720,"BSTAR":0.000026358702,"MEAN_MOTION_DOT":2.6e-7,"MEAN_MOTION_DDOT":0},{"OBJECT_NAME":"HULIANWANG DIGUI-09","OBJECT_ID":"2024-240J","EPOCH":"2026-07-21T14:55:46.922304","CLASSIFICATION_TYPE":"U","MEAN_MOTION":13.24410166,"ECCENTRICITY":0.00020372,"INCLINATION":86.5027,"RA_OF_ASC_NODE":331.6468,"ARG_OF_PERICENTER":102.9235,"MEAN_ANOMALY":257.2127,"EPHEMERIS_TYPE":0,"NORAD_CAT_ID":62331,"ELEMENT_SET_NO":999,"REV_AT_EPOCH":7719,"BSTAR":0.00010735531,"MEAN_MOTION_DOT":6.1e-7,"MEAN_MOTION_DDOT":0},{"OBJECT_NAME":"HULIANWANG DIGUI-10","OBJECT_ID":"2024-240K","EPOCH":"2026-07-21T14:44:54.248064","CLASSIFICATION_TYPE":"U","MEAN_MOTION":13.24410985,"ECCENTRICITY":0.00021354,"INCLINATION":86.5057,"RA_OF_ASC_NODE":331.8123,"ARG_OF_PERICENTER":104.8121,"MEAN_ANOMALY":255.325,"EPHEMERIS_TYPE":0,"NORAD_CAT_ID":62332,"ELEMENT_SET_NO":999,"REV_AT_EPOCH":7719,"BSTAR":0.00012578772,"MEAN_MOTION_DOT":6.9e-7,"MEAN_MOTION_DDOT":0},{"OBJECT_NAME":"HULIANWANG DIGUI-11","OBJECT_ID":"2025-030A","EPOCH":"2026-07-21T10:36:35.355168","CLASSIFICATION_TYPE":"U","MEAN_MOTION":13.29324756,"ECCENTRICITY":0.00009035,"INCLINATION":50.0007,"RA_OF_ASC_NODE":112.9578,"ARG_OF_PERICENTER":292.4246,"MEAN_ANOMALY":67.653,"EPHEMERIS_TYPE":0,"NORAD_CAT_ID":62971,"ELEMENT_SET_NO":999,"REV_AT_EPOCH":7041,"BSTAR":0.000073797254,"MEAN_MOTION_DOT":-9e-7,"MEAN_MOTION_DDOT":0}]}
