HULIANWANG JISHU SHIYAN*
1 57288U 23095A   26202.61661649  .00000048  00000+0  60685-4 0  9990
2 57288  86.5051 352.8562 0019556  95.0878 265.2497 13.39544576148365
HULIANWANG JISHU SHIYAN*
1 57289U 23095B   26202.60807032  .00000035  00000+0  35749-4 0  9997
2 57289  86.5052 352.8686 0018130  93.2951 267.0266 13.39553136148369
HULIANWANG JISHU SHIYAN*
1 58691U 23212A   26202.49631262 -.00000096  00000+0  58399-4 0  9997
2 58691  49.9981 218.0440 0001230 241.9892 118.0861 13.41459384125859
HULIANWANG JISHU SHIYAN*
1 58692U 23212B   26202.56409406 -.00000095  00000+0  59344-4 0  9999
2 58692  49.9950 218.1517 0001378 231.0391 129.0364 13.41460506125868
HULIANWANG JISHU SHIYAN*
1 58693U 23212C   26202.56733121 -.00000092  00000+0  64422-4 0  9994
2 58693  49.9964 218.2673 0001216 220.7648 139.3139 13.41462379125874
HULIANWANG DIGUI-01     
1 62323U 24240A   26202.59940994  .00000045  00000+0  70019-4 0  9998
2 62323  86.5025 331.6293 0002031 104.4528 255.6832 13.24411709 77198
HULIANWANG DIGUI-02     
1 62324U 24240B   26202.60687106  .00000052  00000+0  87645-4 0  9995
2 62324  86.5054 331.7957 0002000 105.0014 255.1342 13.24411619 77205
HULIANWANG DIGUI-03     
1 62325U 24240C   26202.59184193  .00000034  00000+0  46237-4 0  9994
2 62325  86.5008 331.5281 0002055 102.6646 257.4718 13.24410296 77197
HULIANWANG DIGUI-04     
1 62326U 24240D   26202.65985160  .00000022  00000+0  17149-4 0  9992
2 62326  86.5017 331.5492 0002177 101.7334 258.4044 13.24410576 77207
HULIANWANG DIGUI-05     
1 62327U 24240E   26202.57674764  .00000018  00000+0  86519-5 0  9992
2 62327  86.5070 331.8662 0002197  99.3758 260.7625 13.24411240 77191
HULIANWANG DIGUI-06     
1 62328U 24240F   26202.63719861  .00000034  00000+0  45795-4 0  9996
2 62328  86.5008 331.4817 0002190 105.6807 254.4569 13.24408751 77202
HULIANWANG DIGUI-07     
1 62329U 24240G   26202.62961761  .00000056  00000+0  95998-4 0  9998
2 62329  86.4978 331.3131 0002082 104.1757 255.9608 13.24411252 77204
HULIANWANG DIGUI-08     
1 62330U 24240H   26202.64473751  .00000026  00000+0  26359-4 0  9991
2 62330  86.5061 331.7895 0002267  98.8161 261.3230 13.24411553 77200
HULIANWANG DIGUI-09     
1 62331U 24240J   26202.62207086  .00000061  00000+0  10736-3 0  9996
2 62331  86.5027 331.6468 0002037 102.9235 257.2127 13.24410166 77198
HULIANWANG DIGUI-10     
1 62332U 24240K   26202.61451676  .00000069  00000+0  12579-3 0  9997
2 62332  86.5057 331.8123 0002135 104.8121 255.3250 13.24410985 77191
HULIANWANG DIGUI-11     
1 62971U 25030A   26202.44207587 -.00000090  00000+0  73797-4 0  9990
2 62971  50.0007 112.9578 0000903 292.4246  67.6530 13.29324756 70414
